FALCON 9 DEB            
1 56433U 23061BM  23153.79866343  .00714677  26423-3  89715-3 0  9998
2 56433  43.0033 288.0472 0007890 240.8131 119.1961 16.06707900  4716
TROPICS-05              
1 56442U 23062A   23153.90206204  .00009803  00000+0  63805-3 0  9995
2 56442  32.7378 346.5433 0009824 108.7256 251.4480 15.06908004  3890
2023-062B               
1 56443U 23062B   23153.82108940  .00010605  00000+0  67338-3 0  9992
2 56443  32.7349 346.8395 0012153 107.3535 252.8464 15.07795983  3880
TROPICS-06              
1 56444U 23062C   23153.88337105  .00009738  00000+0  61427-3 0  9994
2 56444  32.7374 346.3853 0014322 101.5853 258.6425 15.08006309  3869
2023-062D               
1 56445U 23062D   23153.85686627  .00009143  00000+0  61721-3 0  9995
2 56445  35.4834 353.1800 0011513  86.7805 273.4230 15.05918283  3868
TIANZHOU-6              
1 56446U 23063A   23153.50364300  .00024582  00000+0  30305-3 0  9998
2 56446  41.4740 245.1028 0003882 283.8731  76.1676 15.59611994119545
STARLINK-5990           
1 56448U 23064A   23153.78277434  .00008162  00000+0  69576-4 0  9991
2 56448  69.9975 180.4897 0003823 271.0660  89.0097 15.69925950  3646
STARLINK-5993           
1 56449U 23064B   23153.78319765 -.00000213  00000+0 -14310-8 0  9997
2 56449  69.9976 180.4912 0003453 268.3089  91.7711 15.69922650  3646
STARLINK-5970           
1 56450U 23064C   23153.78266956  .00000137  00000+0  29078-5 0  9999
2 56450  69.9972 180.4894 0003673 271.9016  88.1759 15.69922557  3645
STARLINK-5985           
1 56451U 23064D   23153.46450897 -.00000077  00000+0  11279-5 0  9992
2 56451  69.9976 181.3848 0003436 267.4683  92.6119 15.69919972  3597
STARLINK-5986           
1 56452U 23064E   23153.78298258  .00000904  00000+0  92897-5 0  9992
2 56452  69.9968 180.4906 0003955 265.3846  94.6898 15.69927643  3644
STARLINK-5935           
1 56453U 23064F   23153.78287913  .00001610  00000+0  15160-4 0  9991
2 56453  69.9976 180.4877 0003722 269.0088  91.0681 15.69926303  3645
STARLINK-5959           
1 56454U 23064G   23153.78224863  .00003001  00000+0  26715-4 0  9991
2 56454  69.9977 180.4883 0003426 269.8619  90.2184 15.69924722  3645
STARLINK-5987           
1 56455U 23064H   23153.78214271  .00000529  00000+0  61657-5 0  9991
2 56455  69.9972 180.4853 0003468 266.1896  93.8903 15.69924722  3649
STARLINK-5995           
1 56456U 23064J   23153.78255859  .00002280  00000+0  20719-4 0  9998
2 56456  69.9970 180.4883 0003587 265.1483  94.9303 15.69933460  3649
STARLINK-5994           
1 56457U 23064K   23153.78235444  .00000417  00000+0  52421-5 0  9993
2 56457  69.9976 180.4855 0003449 266.2379  93.8422 15.69922144  3645
STARLINK-6050           
1 56458U 23064L   23153.78246178  .00010083  00000+0  85539-4 0  9995
2 56458  69.9978 180.4872 0003232 270.0379  90.0446 15.69919073  3642
STARLINK-6048           
1 56459U 23064M   23153.78172245  .00000239  00000+0  37562-5 0  9995
2 56459  69.9972 180.4842 0003533 268.3681  91.7110 15.69921469  3642
STARLINK-6047           
1 56460U 23064N   23153.46345425 -.00000152  00000+0  50639-6 0  9990
2 56460  69.9974 181.3816 0003474 264.3109  95.7690 15.69920379  3592
STARLINK-6037           
1 56461U 23064P   23153.78151004 -.00000082  00000+0  10900-5 0  9992
2 56461  69.9973 180.4831 0003453 264.6070  95.4732 15.69923499  3642
STARLINK-6045           
1 56462U 23064Q   23153.91667824  .00110596  00000+0  91123-3 0  9995
2 56462  69.9984 179.5020 0003389 270.5249 282.7266 15.69877401  1301
STARLINK-6051           
1 56463U 23064R   23153.78140670  .00000037  00000+0  20773-5 0  9999
2 56463  69.9973 180.4828 0003566 269.1964  90.8823 15.69920240  3648
STARLINK-6043           
1 56464U 23064S   23153.78182816 -.00000245  00000+0 -27088-6 0  9998
2 56464  69.9971 180.4843 0003380 266.0879  93.9930 15.69922114  3644
STARLINK-6054           
1 56465U 23064T   23153.91667824 -.00661546  00000+0 -51854-2 0  9992
2 56465  69.9943 179.2406 0003221 269.3291 144.7079 15.73165036  1300
STARLINK-6053           
1 56466U 23064U   23153.78162108 -.00003408  00000+0 -26593-4 0  9994
2 56466  69.9972 180.4832 0003266 270.4427  89.6395 15.69916071  3648
STARLINK-6055           
1 56467U 23064V   23153.78077231  .00018378  00000+0  15421-3 0  9994
2 56467  69.9978 180.4797 0003717 269.0426  91.0344 15.69933423  3640
STARLINK-5998           
1 56468U 23064W   23153.78119518 -.00000357  00000+0 -12016-5 0  9999
2 56468  69.9972 180.4811 0003521 269.1412  90.9380 15.69921925  3643
STARLINK-5518           
1 56469U 23064X   23153.78108837  .00000161  00000+0  31064-5 0  9997
2 56469  69.9974 180.4806 0003399 269.9022  90.1784 15.69924447  3640
STARLINK-5523           
1 56470U 23064Y   23153.78087954  .00001124  00000+0  11120-4 0  9995
2 56470  69.9976 180.4807 0003406 275.7004  84.3803 15.69923600  3646
STARLINK-5521           
1 56471U 23064Z   23153.78056150  .00008939  00000+0  76015-4 0  9995
2 56471  69.9975 180.4804 0003590 265.1724  94.9062 15.69928691  3648
STARLINK-5038           
1 56472U 23064AA  23153.78067055  .00001693  00000+0  15852-4 0  9994
2 56472  69.9979 180.4803 0003495 268.8543  91.2252 15.69915614  3647
STARLINK-5486           
1 56473U 23064AB  23153.46166014  .00001644  00000+0  15437-4 0  9990
2 56473  69.9975 181.3730 0003298 269.5735  90.5083 15.69927808  3591
STARLINK-5524           
1 56474U 23064AC  23153.78098324  .00000505  00000+0  59674-5 0  9991
2 56474  69.9970 180.4813 0003374 267.7966  92.2843 15.69925906  3646
STARLINK-5541           
1 56475U 23064AD  23153.46134471  .00011710  00000+0  98979-4 0  9991
2 56475  69.9982 181.3718 0003441 263.9405  96.1398 15.69934280  3592
STARLINK-5545           
1 56476U 23064AE  23153.78045401  .00001113  00000+0  11024-4 0  9993
2 56476  69.9973 180.4785 0003378 269.0924  90.9885 15.69928183  3643
STARLINK-5534           
1 56477U 23064AF  23153.46124064  .00002378  00000+0  21523-4 0  9991
2 56477  69.9984 181.3700 0003414 282.1582  77.9231 15.69942630  3946
STARLINK-6041           
1 56478U 23064AG  23153.78014027  .00008125  00000+0  69260-4 0  9990
2 56478  69.9987 180.4769 0003546 267.0694  93.0096 15.69929439  3644
STARLINK-6044           
1 56479U 23064AH  23153.46081676  .00003359  00000+0  29689-4 0  9995
2 56479  69.9976 181.3686 0003459 262.4863  97.5940 15.69929164  3946
STARLINK-6214           
1 56480U 23064AJ  23153.78035181  .00006853  00000+0  58708-4 0  9998
2 56480  69.9979 180.4774 0003461 268.3806  91.6993 15.69925798  3643
STARLINK-6222           
1 56481U 23064AK  23153.46102757  .00001883  00000+0  17420-4 0  9992
2 56481  69.9977 181.3693 0003235 268.4029  91.6797 15.69928142  3940
STARLINK-6220           
1 56482U 23064AL  23153.46145027  .00003434  00000+0  30309-4 0  9995
2 56482  69.9980 181.3714 0003413 263.0299  97.0508 15.69928880  3597
STARLINK-5868           
1 56483U 23064AM  23153.46071461  .00001113  00000+0  11023-4 0  9990
2 56483  69.9981 181.3680 0003477 260.1770  99.9033 15.69921811  3594
STARLINK-6221           
1 56484U 23064AN  23153.46113206  .00001808  00000+0  16802-4 0  9996
2 56484  69.9974 181.3712 0003340 271.5770  88.5043 15.69929286  3597
STARLINK-6210           
1 56485U 23064AP  23153.46060686  .00014869  00000+0  12515-3 0  9997
2 56485  69.9985 181.3673 0003455 264.7534  95.3267 15.69935668  3590
STARLINK-6201           
1 56486U 23064AQ  23153.46092186  .00002954  00000+0  26320-4 0  9990
2 56486  69.9976 181.3697 0003395 268.1866  91.8941 15.69930928  3949
STARLINK-6196           
1 56487U 23064AR  23153.46028956  .00009636  00000+0  81784-4 0  9994
2 56487  69.9984 181.3659 0003337 266.6386  93.4428 15.69933943  3592
STARLINK-6204           
1 56488U 23064AS  23153.46050061  .00007935  00000+0  67686-4 0  9992
2 56488  69.9979 181.3687 0003414 262.1296  97.9512 15.69929431  3595
STARLINK-5923           
1 56489U 23064AT  23153.46018657  .00021970  00000+0  18394-3 0  9994
2 56489  69.9984 181.3650 0003535 261.2514  98.8282 15.69931687  3599
STARLINK-5873           
1 56490U 23064AU  23153.46039684  .00011521  00000+0  97415-4 0  9992
2 56490  69.9983 181.3675 0003437 260.6754  99.4053 15.69931962  3596
STARLINK-5842           
1 56491U 23064AV  23153.46008230  .00000561  00000+0  64389-5 0  9993
2 56491  69.9978 181.3650 0003425 269.8054  90.2749 15.69920857  3597
STARLINK-5846           
1 56492U 23064AW  23153.45986903  .00018889  00000+0  15845-3 0  9998
2 56492  69.9984 181.3640 0003422 265.7100  94.3705 15.69932543  3590
STARLINK-5841           
1 56493U 23064AX  23153.45934459  .00005796  00000+0  49939-4 0  9993
2 56493  69.9985 181.3621 0003211 265.4513  94.6316 15.69924482  3596
STARLINK-5530           
1 56494U 23064AY  23153.45997307  .00000971  00000+0  98440-5 0  9997
2 56494  69.9966 181.3648 0003401 264.5521  95.5286 15.69926658  3947
STARLINK-5529           
1 56495U 23064AZ  23153.45965856  .00010283  00000+0  87151-4 0  9995
2 56495  69.9987 181.3634 0003527 266.4738  93.6054 15.69932715  3590
STARLINK-5526           
1 56496U 23064BA  23153.45955387  .00009576  00000+0  81292-4 0  9997
2 56496  69.9983 181.3642 0003300 267.5633  92.5185 15.69931712  3590
STARLINK-5527           
1 56497U 23064BB  23153.45944979  .00001265  00000+0  12285-4 0  9996
2 56497  69.9981 181.3619 0003238 268.4552  91.6272 15.69924373  3595
STARLINK-5522           
1 56498U 23064BC  23153.45976399  .00012936  00000+0  10914-3 0  9991
2 56498  69.9986 181.3639 0003403 263.2954  96.7855 15.69934849  3598
STARLINK-5775           
1 56503U 23065A   23153.85176318  .00000107  00000+0  42629-5 0  9993
2 56503  43.0005 325.8157 0002007 273.0710  86.9928 15.71360168  4300
STARLINK-5716           
1 56504U 23065B   23153.85155548  .00020873  00000+0  16215-3 0  9998
2 56504  42.9999 325.8133 0002117 270.2475  89.8150 15.71364524  4303
